[{"OBJECT_NAME":"PE2_FLT2  (TYVAK-0262)","OBJECT_ID":"2024-043G","EPOCH":"2026-03-09T22:11:35.814912","MEAN_MOTION":14.96566721,"ECCENTRICITY":0.00068512,"INCLINATION":97.8241,"RA_OF_ASC_NODE":199.4452,"ARG_OF_PERICENTER":28.1235,"MEAN_ANOMALY":332.0355,"EPHEMERIS_TYPE":0,"CLASSIFICATION_TYPE":"U","NORAD_CAT_ID":59104,"ELEMENT_SET_NO":999,"REV_AT_EPOCH":10980,"BSTAR":0.00036572059,"MEAN_MOTION_DOT":4.105e-5,"MEAN_MOTION_DDOT":0},{"OBJECT_NAME":"STARLINK-33904","OBJECT_ID":"2025-094Z","EPOCH":"2026-03-09T20:49:37.867296","MEAN_MOTION":14.98343675,"ECCENTRICITY":0.00031203,"INCLINATION":70.0012,"RA_OF_ASC_NODE":233.8528,"ARG_OF_PERICENTER":268.9324,"MEAN_ANOMALY":91.1478,"EPHEMERIS_TYPE":0,"CLASSIFICATION_TYPE":"U","NORAD_CAT_ID":63887,"ELEMENT_SET_NO":999,"REV_AT_EPOCH":4723,"BSTAR":0.00049416816,"MEAN_MOTION_DOT":5.81e-5,"MEAN_MOTION_DDOT":0}]
